OBJECT_NAME,OBJECT_ID,EPOCH,MEAN_MOTION,ECCENTRICITY,INCLINATION,RA_OF_ASC_NODE,ARG_OF_PERICENTER,MEAN_ANOMALY,EPHEMERIS_TYPE,CLASSIFICATION_TYPE,NORAD_CAT_ID,ELEMENT_SET_NO,REV_AT_EPOCH,BSTAR,MEAN_MOTION_DOT,MEAN_MOTION_DDOT
ALOS-2,2014-029A,2026-06-03T22:49:04.903680,14.79483127,.00015874,97.9215,252.3038,89.3799,270.7594,0,U,39766,999,64962,.1876029E-3,.135E-4,0
KAZEOSAT 2,2014-033A,2026-06-03T21:25:23.429856,14.85452343,.00090679,97.5409,355.2068,13.4109,346.7346,0,U,40010,999,64698,.49935844E-4,.381E-5,0
HODOYOSHI-4,2014-033B,2026-06-03T22:07:53.273568,14.88095925,.00235977,97.5447,340.3854,353.3456,6.7445,0,U,40011,999,64683,.17837596E-3,.1596E-4,0
DEIMOS-2,2014-033D,2026-06-03T22:03:48.218112,14.93685632,.00019054,97.5838,29.8735,58.5148,301.6259,0,U,40013,999,63574,.17813754E-3,.1829E-4,0
HODOYOSHI-3,2014-033F,2026-06-03T12:14:29.187456,14.85358531,.00338239,97.6407,318.1026,41.7374,318.6413,0,U,40015,999,64559,.1507782E-3,.1257E-4,0
SPOT 7,2014-034A,2026-06-03T23:06:55.744416,14.60946050,.00011747,98.0632,217.7948,84.2393,275.8942,0,U,40053,999,63520,.9967982E-4,.443E-5,0
SKYSAT-B,2014-037D,2026-06-03T14:36:56.602944,14.87990525,.0004889,98.3831,112.8009,336.4365,23.6625,0,U,40072,999,64394,.18569438E-3,.1643E-4,0
WORLDVIEW-3 (WV-3),2014-048A,2026-06-03T21:26:25.005408,14.84998867,.00019508,97.8567,229.9097,46.5875,313.5502,0,U,40115,999,63993,.12103647E-3,.979E-5,0
GAOFEN-2,2014-049A,2026-06-03T22:23:33.892224,14.80883164,.00059331,98.0112,219.1522,279.6954,80.3588,0,U,40118,999,63727,.78771941E-4,.555E-5,0
YAOGAN-21,2014-053A,2026-06-03T22:03:40.728960,15.26168407,.00095042,97.1477,195.7256,131.8097,228.3956,0,U,40143,999,65293,.33544232E-3,.8613E-4,0
YAOGAN-22,2014-063A,2026-06-03T06:26:24.891360,13.15530726,.00060182,100.7707,305.3113,217.3776,142.6917,0,U,40275,999,55798,-.24083525E-4,-.56E-6,0
ASNARO,2014-070A,2026-06-03T22:07:18.535584,15.19911778,.00039359,97.3455,231.3955,166.9903,193.1434,0,U,40298,999,64199,.40574749E-3,.8655E-4,0
YAOGAN-24,2014-072A,2026-06-03T22:22:44.119776,14.76203935,.00129062,98.1475,292.1592,310.3360,49.6721,0,U,40310,999,62176,.86359023E-4,.545E-5,0
CBERS 4,2014-079A,2026-06-03T22:23:51.210240,14.35504602,.00020671,98.3535,212.1798,78.8571,281.2848,0,U,40336,999,60205,-.2554348E-5,-.5E-6,0
YAOGAN-26,2014-088A,2026-06-03T22:31:48.464832,15.46803401,.00066393,97.0642,155.4640,95.9980,264.2028,0,U,40362,999,63565,.68102346E-3,.34188E-3,0
SMAP,2015-003A,2026-06-03T21:11:49.009632,14.63354204,.00012586,98.1276,162.1663,90.9808,269.1538,0,U,40376,999,60567,.10591639E-3,.5E-5,0
KOMPSAT-3A,2015-014A,2026-06-03T23:23:05.969760,15.53376116,.00553243,97.6887,145.3774,222.9549,136.7378,0,U,40536,999,61976,.36472115E-3,.2456E-3,0
SENTINEL-2A,2015-028A,2026-06-03T22:16:17.467680,14.30819266,.00010611,98.5685,229.9672,85.1746,274.9558,0,U,40697,999,57183,.15634176E-4,-.3E-7,0
GAOFEN-8,2015-030A,2026-06-03T22:42:23.080608,15.45451500,.00078113,97.6905,347.5268,237.5728,122.4765,0,U,40701,999,60940,.40030371E-3,.19111E-3,0
CARBONITE 1 (CBNT-1),2015-032D,2026-06-03T23:06:43.371936,14.83543937,.00141703,97.6499,333.5841,344.2196,15.8575,0,U,40718,999,58738,.18724956E-3,.1493E-4,0
YAOGAN-27,2015-040A,2026-06-03T22:52:17.168736,13.16067863,.00074558,100.1145,141.9104,243.5893,116.4456,0,U,40878,999,51592,-.38074957E-3,-.187E-5,0
GAOFEN-9 01,2015-047A,2026-06-03T23:19:20.419968,14.82857355,.00273413,97.6286,191.2665,180.2391,179.8815,0,U,40894,999,57823,.13861674E-3,.1079E-4,0
YAOGAN-28,2015-064A,2026-06-03T22:58:51.040416,15.27240339,.00095314,97.3065,293.4916,232.4605,127.5769,0,U,41026,999,58866,.27619602E-3,.731E-4,0
YAOGAN-29,2015-069A,2026-06-03T22:53:47.452416,14.83071936,.00029441,98.0027,183.5652,75.9587,284.1953,0,U,41038,999,56866,.21515676E-4,.121E-5,0
KENT RIDGE 1,2015-077B,2026-05-31T22:08:18.478176,15.23022815,.00083865,14.9811,26.9327,8.7098,351.3369,0,U,41167,999,57861,.16664618E-3,.4809E-4,0
GAOFEN-4,2015-083A,2026-06-03T22:39:54.432864,1.00270662,.00042925,0.3237,83.8134,109.3065,144.9586,0,U,41194,999,3839,0,-.323E-5,0
JASON-3,2016-002A,2026-06-03T19:10:12.448416,12.87627721,.00086055,66.0389,153.9831,273.3271,86.6763,0,U,41240,999,48552,-.23579291E-4,-.68E-6,0
SENTINEL-3A,2016-011A,2026-06-03T21:24:19.297728,14.26736125,.0001305,98.6251,222.4659,106.0870,254.0454,0,U,41335,999,53616,.71940468E-4,.13E-5,0
ZIYUAN 3-02 (ZY 3-02),2016-033A,2026-06-03T23:16:37.886880,15.21345955,.00120125,97.3835,230.9967,341.5872,18.4927,0,U,41556,999,55597,.26867187E-3,.596E-4,0
CARTOSAT-2C,2016-040A,2026-06-03T22:53:08.510208,15.19205262,.00095321,97.4487,215.1124,173.1639,186.9728,0,U,41599,999,55170,.13501948E-3,.2776E-4,0
