ALOS-2                  
1 39766U 14029A   26154.95075120  .00001350  00000+0  18760-3 0  9997
2 39766  97.9215 252.3038 0001587  89.3799 270.7594 14.79483127649622
KAZEOSAT 2              
1 40010U 14033A   26154.89263229  .00000381  00000+0  49936-4 0  9991
2 40010  97.5409 355.2068 0009067  13.4109 346.7346 14.85452343646985
HODOYOSHI-4             
1 40011U 14033B   26154.92214437  .00001596  00000+0  17838-3 0  9997
2 40011  97.5447 340.3854 0023597 353.3456   6.7445 14.88095925646830
DEIMOS-2                
1 40013U 14033D   26154.91930808  .00001829  00000+0  17814-3 0  9998
2 40013  97.5838  29.8735 0001905  58.5148 301.6259 14.93685632635748
HODOYOSHI-3             
1 40015U 14033F   26154.51006004  .00001257  00000+0  15078-3 0  9993
2 40015  97.6407 318.1026 0033823  41.7374 318.6413 14.85358531645599
SPOT 7                  
1 40053U 14034A   26154.96314519  .00000443  00000+0  99680-4 0  9996
2 40053  98.0632 217.7948 0001174  84.2393 275.8942 14.60946050635200
SKYSAT-B                
1 40072U 14037D   26154.60898846  .00001643  00000+0  18569-3 0  9990
2 40072  98.3831 112.8009 0004889 336.4365  23.6625 14.87990525643947
WORLDVIEW-3 (WV-3)      
1 40115U 14048A   26154.89334497  .00000979  00000+0  12104-3 0  9998
2 40115  97.8567 229.9097 0001950  46.5875 313.5502 14.84998867639936
GAOFEN-2                
1 40118U 14049A   26154.93303116  .00000555  00000+0  78772-4 0  9995
2 40118  98.0112 219.1522 0005933 279.6954  80.3588 14.80883164637271
YAOGAN-21               
1 40143U 14053A   26154.91922140  .00008613  00000+0  33544-3 0  9990
2 40143  97.1477 195.7256 0009504 131.8097 228.3956 15.26168407652931
YAOGAN-22               
1 40275U 14063A   26154.26834365 -.00000056  00000+0 -24084-4 0  9991
2 40275 100.7707 305.3113 0006018 217.3776 142.6917 13.15530726557983
ASNARO                  
1 40298U 14070A   26154.92174231  .00008655  00000+0  40575-3 0  9999
2 40298  97.3455 231.3955 0003935 166.9903 193.1434 15.19911778641993
YAOGAN-24               
1 40310U 14072A   26154.93245509  .00000545  00000+0  86359-4 0  9995
2 40310  98.1475 292.1592 0012906 310.3360  49.6721 14.76203935621769
CBERS 4                 
1 40336U 14079A   26154.93323160 -.00000050  00000+0 -25543-5 0  9992
2 40336  98.3535 212.1798 0002067  78.8571 281.2848 14.35504602602058
YAOGAN-26               
1 40362U 14088A   26154.93875538  .00034188  00000+0  68102-3 0  9995
2 40362  97.0642 155.4640 0006639  95.9980 264.2028 15.46803401635655
SMAP                    
1 40376U 15003A   26154.88320613  .00000500  00000+0  10592-3 0  9992
2 40376  98.1276 162.1663 0001258  90.9808 269.1538 14.63354204605670
KOMPSAT-3A              
1 40536U 15014A   26154.97437465  .00024560  00000+0  36472-3 0  9993
2 40536  97.6887 145.3774 0055324 222.9549 136.7378 15.53376116619760
SENTINEL-2A             
1 40697U 15028A   26154.92797995 -.00000003  00000+0  15634-4 0  9993
2 40697  98.5685 229.9672 0001061  85.1746 274.9558 14.30819266571839
GAOFEN-8                
1 40701U 15030A   26154.94610047  .00019111  00000+0  40030-3 0  9992
2 40701  97.6905 347.5268 0007811 237.5728 122.4765 15.45451500609402
CARBONITE 1 (CBNT-1)    
1 40718U 15032D   26154.96300199  .00001493  00000+0  18725-3 0  9998
2 40718  97.6499 333.5841 0014170 344.2196  15.8575 14.83543937587384
YAOGAN-27               
1 40878U 15040A   26154.95297649 -.00000187  00000+0 -38075-3 0  9999
2 40878 100.1145 141.9104 0007455 243.5893 116.4456 13.16067863515926
GAOFEN-9 01             
1 40894U 15047A   26154.97176412  .00001079  00000+0  13862-3 0  9996
2 40894  97.6286 191.2665 0027341 180.2391 179.8815 14.82857355578238
YAOGAN-28               
1 41026U 15064A   26154.95753519  .00007310  00000+0  27620-3 0  9991
2 41026  97.3065 293.4916 0009531 232.4605 127.5769 15.27240339588665
YAOGAN-29               
1 41038U 15069A   26154.95402144  .00000121  00000+0  21516-4 0  9996
2 41038  98.0027 183.5652 0002944  75.9587 284.1953 14.83071936568669
KENT RIDGE 1            
1 41167U 15077B   26151.92243609  .00004809  00000+0  16665-3 0  9996
2 41167  14.9811  26.9327 0008386   8.7098 351.3369 15.23022815578617
GAOFEN-4                
1 41194U 15083A   26154.94438001 -.00000323  00000+0  00000+0 0  9990
2 41194   0.3237  83.8134 0004292 109.3065 144.9586  1.00270662 38398
JASON-3                 
1 41240U 16002A   26154.79875519 -.00000068  00000+0 -23579-4 0  9994
2 41240  66.0389 153.9831 0008605 273.3271  86.6763 12.87627721485522
SENTINEL-3A             
1 41335U 16011A   26154.89189002  .00000130  00000+0  71940-4 0  9998
2 41335  98.6251 222.4659 0001305 106.0870 254.0454 14.26736125536162
ZIYUAN 3-02 (ZY 3-02)   
1 41556U 16033A   26154.96988295  .00005960  00000+0  26867-3 0  9999
2 41556  97.3835 230.9967 0012012 341.5872  18.4927 15.21345955555972
CARTOSAT-2C             
1 41599U 16040A   26154.95357072  .00002776  00000+0  13502-3 0  9990
2 41599  97.4487 215.1124 0009532 173.1639 186.9728 15.19205262551706
